XW-2F                   
1 40910U 15049M   17346.46559918  .00001323  00000-0  72007-4 0  9990
2 40910  97.4557 349.1632 0014116 316.6051  43.4070 15.16109876123150
